TOMORROW-S1             
1 60479U 24149M   25051.78360859  .00011752  00000+0  49265-3 0  9999
2 60479  97.4168 130.6593 0004015 141.2954 218.8571 15.23656734 28561
FLOCK 4BE-18            
1 60480U 24149N   25051.79891314  .00016360  00000+0  66530-3 0  9991
2 60480  97.4168 130.8123 0005386 161.2485 198.8952 15.24598856 28579
FLOCK 4BE-7             
1 60481U 24149P   25051.75112497  .00015495  00000+0  64051-3 0  9990
2 60481  97.4199 130.8014 0004727 161.0470 199.0944 15.24062602 28561
FLOCK 4BE-4             
1 60482U 24149Q   25051.77490213  .00031805  00000+0  75016-3 0  9994
2 60482  97.4160 133.4563 0003011  95.9281 264.2309 15.41833060 28741
FLOCK 4BE-16            
1 60483U 24149R   25051.78888704  .00016365  00000+0  66796-3 0  9991
2 60483  97.4184 130.8676 0004080 153.5212 206.6234 15.24481156 28570
FLOCK 4BE-26            
1 60484U 24149S   25051.79696921  .00016254  00000+0  66593-3 0  9993
2 60484  97.4159 130.7824 0004603 160.7932 199.3480 15.24352966 28574
TOMORROW-S2             
1 60485U 24149T   25052.21010229  .00011509  00000+0  48188-3 0  9991
2 60485  97.4228 131.3050 0004199 151.0627 209.0843 15.23702619 28636
FLOCK 4BE-36            
1 60486U 24149U   25051.76314141  .00019569  00000+0  78329-3 0  9995
2 60486  97.4167 130.8458 0005189 169.4280 190.7068 15.25093813 28572
FLOCK 4BE-25            
1 60487U 24149V   25051.80088426  .00015016  00000+0  61858-3 0  9997
2 60487  97.4217 130.9292 0003797 157.2338 202.9068 15.24190703 28579
FLOCK 4BE-31            
1 60488U 24149W   25052.20879503  .00018038  00000+0  72290-3 0  9996
2 60488  97.4217 131.4486 0004113 163.2022 196.9352 15.25075395 28647
FLOCK 4BE-20            
1 60489U 24149X   25052.20333346  .00013882  00000+0  57720-3 0  9990
2 60489  97.4141 131.1216 0005474 163.5461 196.5954 15.23886561 28639
FLOCK 4BE-23            
1 60490U 24149Y   25052.16053855  .00013271  00000+0  55626-3 0  9996
2 60490  97.4212 131.1934 0005212 165.5250 194.6137 15.23627810 28626
FLOCK 4BE-15            
1 60491U 24149Z   25051.90501015  .00016185  00000+0  65648-3 0  9996
2 60491  97.4145 130.9063 0004650 167.8427 192.2924 15.24692320 28591
FLOCK 4BE-17            
1 60492U 24149AA  25051.80412663  .00015826  00000+0  65300-3 0  9992
2 60492  97.4217 130.9286 0004293 164.6067 195.5302 15.24122257 28578
NUSAT-50 (NANCY ROMAN)  
1 60493U 24149AB  25051.78555025  .00015412  00000+0  63137-3 0  9997
2 60493  97.4197 130.9019 0004933 166.8680 193.2686 15.24367032 28578
FLOCK 4BE-22            
1 60494U 24149AC  25052.16364329  .00015002  00000+0  61071-3 0  9996
2 60494  97.4156 131.2105 0005737 174.2854 185.8450 15.24582953 28637
FLOCK 4BE-34            
1 60495U 24149AD  25052.17905985  .00013380  00000+0  53083-3 0  9998
2 60495  97.4205 131.3165 0005356 179.9429 180.1810 15.25476357 28636
TYCHE                   
1 60496U 24149AE  25051.94433413  .00008102  00000+0  36138-3 0  9993
2 60496  97.4201 130.6833 0004937 172.4500 187.6811 15.21649148 28571
FLOCK 4BE-32            
1 60497U 24149AF  25051.80123692  .00017232  00000+0  69207-3 0  9991
2 60497  97.4144 130.8962 0005177 169.3331 190.8018 15.25007728 28589
NUSAT-48 (HENRIETTA LE*)
1 60498U 24149AG  25051.77702128  .00015421  00000+0  63137-3 0  9999
2 60498  97.4167 130.8306 0005489 178.1819 181.9440 15.24384273 28573
FLOCK 4BE-30            
1 60499U 24149AH  25052.20365157  .00016174  00000+0  65217-3 0  9993
2 60499  97.4220 131.4646 0003877 168.7734 191.3590 15.24893629 28029
NUSAT-49 (KLARA DAN VO*)
1 60500U 24149AJ  25051.77443189  .00015495  00000+0  63450-3 0  9991
2 60500  97.4196 130.9068 0004621 171.1600 188.9720 15.24382721 28577
FLOCK 4BE-11            
1 60501U 24149AK  25052.20222746  .00017534  00000+0  70275-3 0  9994
2 60501  97.4144 131.2782 0005517 179.2726 180.8520 15.25072037 28645
FLOCK 4BE-33            
1 60502U 24149AL  25052.17365891  .00013890  00000+0  57299-3 0  9992
2 60502  97.4158 131.1971 0005656 182.8989 177.2217 15.24153379 28635
FLOCK 4BE-10            
1 60503U 24149AM  25051.77059898  .00015426  00000+0  63274-3 0  9992
2 60503  97.4206 130.9563 0004100 178.1737 181.9516 15.24328617 28572
YAM-7                   
1 60504U 24149AN  25051.78243444  .00010404  00000+0  44585-3 0  9991
2 60504  97.4211 130.7640 0004100 179.2370 180.8874 15.22941297 28565
FLOCK 4BE-24            
1 60505U 24149AP  25052.16231785  .00015870  00000+0  63244-3 0  9995
2 60505  97.4146 131.3305 0005445 189.9039 170.2092 15.25285921 28643
LUR-1                   
1 60506U 24149AQ  25051.89161689  .00007955  00000+0  35039-3 0  9996
2 60506  97.4190 130.7237 0004465 188.2518 171.8645 15.22085509 28575
TANAGER-1               
1 60507U 24149AR  25051.75850791  .00009966  00000+0  22155-3 0  9990
2 60507  97.4176 133.8028 0009595 227.5187 132.5251 15.43828108 28761
EAGLEEYE                
1 60508U 24149AS  25051.78255053  .00025799  00000+0  92846-3 0  9990
2 60508  97.4162 131.4217 0004618 189.3489 170.7666 15.28569471 28618
