OBJECT_NAME,OBJECT_ID,EPOCH,MEAN_MOTION,ECCENTRICITY,INCLINATION,RA_OF_ASC_NODE,ARG_OF_PERICENTER,MEAN_ANOMALY,EPHEMERIS_TYPE,CLASSIFICATION_TYPE,NORAD_CAT_ID,ELEMENT_SET_NO,REV_AT_EPOCH,BSTAR,MEAN_MOTION_DOT,MEAN_MOTION_DDOT
TOMORROW-S1,2024-149M,2025-02-20T18:48:23.782176,15.23656734,.0004015,97.4168,130.6593,141.2954,218.8571,0,U,60479,999,2856,.49265E-3,.11752E-3,0
FLOCK 4BE-18,2024-149N,2025-02-20T19:10:26.095296,15.24598856,.0005386,97.4168,130.8123,161.2485,198.8952,0,U,60480,999,2857,.6653E-3,.1636E-3,0
FLOCK 4BE-7,2024-149P,2025-02-20T18:01:37.197408,15.24062602,.0004727,97.4199,130.8014,161.0470,199.0944,0,U,60481,999,2856,.64051E-3,.15495E-3,0
FLOCK 4BE-4,2024-149Q,2025-02-20T18:35:51.544032,15.41833060,.0003011,97.4160,133.4563,95.9281,264.2309,0,U,60482,999,2874,.75016E-3,.31805E-3,0
FLOCK 4BE-16,2024-149R,2025-02-20T18:55:59.840256,15.24481156,.000408,97.4184,130.8676,153.5212,206.6234,0,U,60483,999,2857,.66796E-3,.16365E-3,0
FLOCK 4BE-26,2024-149S,2025-02-20T19:07:38.139744,15.24352966,.0004603,97.4159,130.7824,160.7932,199.3480,0,U,60484,999,2857,.66593E-3,.16254E-3,0
TOMORROW-S2,2024-149T,2025-02-21T05:02:32.837856,15.23702619,.0004199,97.4228,131.3050,151.0627,209.0843,0,U,60485,999,2863,.48188E-3,.11509E-3,0
FLOCK 4BE-36,2024-149U,2025-02-20T18:18:55.417824,15.25093813,.0005189,97.4167,130.8458,169.4280,190.7068,0,U,60486,999,2857,.78329E-3,.19569E-3,0
FLOCK 4BE-25,2024-149V,2025-02-20T19:13:16.400064,15.24190703,.0003797,97.4217,130.9292,157.2338,202.9068,0,U,60487,999,2857,.61858E-3,.15016E-3,0
FLOCK 4BE-31,2024-149W,2025-02-21T05:00:39.890592,15.25075395,.0004113,97.4217,131.4486,163.2022,196.9352,0,U,60488,999,2864,.7229E-3,.18038E-3,0
FLOCK 4BE-20,2024-149X,2025-02-21T04:52:48.010944,15.23886561,.0005474,97.4141,131.1216,163.5461,196.5954,0,U,60489,999,2863,.5772E-3,.13882E-3,0
FLOCK 4BE-23,2024-149Y,2025-02-21T03:51:10.530720,15.23627810,.0005212,97.4212,131.1934,165.5250,194.6137,0,U,60490,999,2862,.55626E-3,.13271E-3,0
FLOCK 4BE-15,2024-149Z,2025-02-20T21:43:12.876960,15.24692320,.000465,97.4145,130.9063,167.8427,192.2924,0,U,60491,999,2859,.65648E-3,.16185E-3,0
FLOCK 4BE-17,2024-149AA,2025-02-20T19:17:56.540832,15.24122257,.0004293,97.4217,130.9286,164.6067,195.5302,0,U,60492,999,2857,.653E-3,.15826E-3,0
NUSAT-50 (NANCY ROMAN),2024-149AB,2025-02-20T18:51:11.541600,15.24367032,.0004933,97.4197,130.9019,166.8680,193.2686,0,U,60493,999,2857,.63137E-3,.15412E-3,0
FLOCK 4BE-22,2024-149AC,2025-02-21T03:55:38.780256,15.24582953,.0005737,97.4156,131.2105,174.2854,185.8450,0,U,60494,999,2863,.61071E-3,.15002E-3,0
FLOCK 4BE-34,2024-149AD,2025-02-21T04:17:50.771040,15.25476357,.0005356,97.4205,131.3165,179.9429,180.1810,0,U,60495,999,2863,.53083E-3,.1338E-3,0
TYCHE,2024-149AE,2025-02-20T22:39:50.468832,15.21649148,.0004937,97.4201,130.6833,172.4500,187.6811,0,U,60496,999,2857,.36138E-3,.8102E-4,0
FLOCK 4BE-32,2024-149AF,2025-02-20T19:13:46.869888,15.25007728,.0005177,97.4144,130.8962,169.3331,190.8018,0,U,60497,999,2858,.69207E-3,.17232E-3,0
NUSAT-48 (HENRIETTA LEAVITT),2024-149AG,2025-02-20T18:38:54.638592,15.24384273,.0005489,97.4167,130.8306,178.1819,181.9440,0,U,60498,999,2857,.63137E-3,.15421E-3,0
FLOCK 4BE-30,2024-149AH,2025-02-21T04:53:15.495648,15.24893629,.0003877,97.4220,131.4646,168.7734,191.3590,0,U,60499,999,2802,.65217E-3,.16174E-3,0
NUSAT-49 (KLARA DAN VON NEUMANN),2024-149AJ,2025-02-20T18:35:10.915296,15.24382721,.0004621,97.4196,130.9068,171.1600,188.9720,0,U,60500,999,2857,.6345E-3,.15495E-3,0
FLOCK 4BE-11,2024-149AK,2025-02-21T04:51:12.452544,15.25072037,.0005517,97.4144,131.2782,179.2726,180.8520,0,U,60501,999,2864,.70275E-3,.17534E-3,0
FLOCK 4BE-33,2024-149AL,2025-02-21T04:10:04.129824,15.24153379,.0005656,97.4158,131.1971,182.8989,177.2217,0,U,60502,999,2863,.57299E-3,.1389E-3,0
FLOCK 4BE-10,2024-149AM,2025-02-20T18:29:39.751872,15.24328617,.00041,97.4206,130.9563,178.1737,181.9516,0,U,60503,999,2857,.63274E-3,.15426E-3,0
YAM-7,2024-149AN,2025-02-20T18:46:42.335616,15.22941297,.00041,97.4211,130.7640,179.2370,180.8874,0,U,60504,999,2856,.44585E-3,.10404E-3,0
FLOCK 4BE-24,2024-149AP,2025-02-21T03:53:44.262240,15.25285921,.0005445,97.4146,131.3305,189.9039,170.2092,0,U,60505,999,2864,.63244E-3,.1587E-3,0
LUR-1,2024-149AQ,2025-02-20T21:23:55.699296,15.22085509,.0004465,97.4190,130.7237,188.2518,171.8645,0,U,60506,999,2857,.35039E-3,.7955E-4,0
TANAGER-1,2024-149AR,2025-02-20T18:12:15.083424,15.43828108,.0009595,97.4176,133.8028,227.5187,132.5251,0,U,60507,999,2876,.22155E-3,.9966E-4,0
EAGLEEYE,2024-149AS,2025-02-20T18:46:52.365792,15.28569471,.0004618,97.4162,131.4217,189.3489,170.7666,0,U,60508,999,2861,.92846E-3,.25799E-3,0
